{
  "norad_id": 64557,
  "name": "CONNECTA IOT-11",
  "history": [
    {
      "epoch": "2026-03-28T13:21:28.071360Z",
      "apogee_km": 502.6405865785291,
      "perigee_km": 502.39260782288693,
      "latitude_deg": 1.0823268092410757e-06,
      "longitude_deg": 177.28491481237606,
      "height_km": 505.5408751218932,
      "semi_major_axis_km": 6880.653597200708,
      "eccentricity": 1.802e-05,
      "inclination_deg": 97.4609,
      "raan_deg": 203.6272,
      "arg_perigee_deg": 57.9904,
      "mean_anomaly_deg": 302.1349,
      "mean_motion_rev_day": 15.21101592
    }
  ]
}